{"type": "FeatureCollection", "features": [ {"type": "Feature", "properties": {"norad_id": 66629, "name": "STARLINK-35956", "group": "last-30-days", "lat": -48.29777496576907, "lon": 76.13569111242465, "alt_km": 391.73826952098807, "timestamp": "2025-12-10T07:43:53.550095+00:00", "meta": {"OBJECT_NAME": "STARLINK-35956", "OBJECT_ID": "2025-271N", "EPOCH": "2025-12-09T20:00:01.999008", "MEAN_MOTION": 15.62630148, "ECCENTRICITY": 8.75e-05, "INCLINATION": 53.1594, "RA_OF_ASC_NODE": 201.2256, "ARG_OF_PERICENTER": 98.6641, "MEAN_ANOMALY": 280.895, "EPHEMERIS_TYPE": 0, "CLASSIFICATION_TYPE": "U", "NORAD_CAT_ID": 66629, "ELEMENT_SET_NO": 999, "REV_AT_EPOCH": 377, "BSTAR": -0.025366, "MEAN_MOTION_DOT": -0.020276, "MEAN_MOTION_DDOT": 0}, "tle": {"line1": "1 66629U 25271N   25343.83335647 -.02027600  00000+0 -25366-1 0  9993", "line2": "2 66629  53.1594 201.2256 0000875  98.6641 280.8950 15.62630148  3775"}}, "geometry": {"type": "Point", "coordinates": [76.13569111242465, -48.29777496576907]}}, {"type": "Feature", "properties": {"norad_id": 66630, "name": "STARLINK-35949", "group": "last-30-days", "lat": -49.09470119120795, "lon": 78.76346717259473, "alt_km": 391.72363349136594, "timestamp": "2025-12-10T07:43:53.550107+00:00", "meta": {"OBJECT_NAME": "STARLINK-35949", "OBJECT_ID": "2025-271P", "EPOCH": "2025-12-09T20:00:01.999008", "MEAN_MOTION": 15.62631061, "ECCENTRICITY": 7.82e-05, "INCLINATION": 53.1596, "RA_OF_ASC_NODE": 201.2208, "ARG_OF_PERICENTER": 97.9965, "MEAN_ANOMALY": 283.4796, "EPHEMERIS_TYPE": 0, "CLASSIFICATION_TYPE": "U", "NORAD_CAT_ID": 66630, "ELEMENT_SET_NO": 999, "REV_AT_EPOCH": 377, "BSTAR": -0.025399, "MEAN_MOTION_DOT": -0.02029887, "MEAN_MOTION_DDOT": 0}, "tle": {"line1": "1 66630U 25271P   25343.83335647 -.02029887  00000+0 -25399-1 0  9990", "line2": "2 66630  53.1596 201.2208 0000782  97.9965 283.4796 15.62631061  3776"}}, "geometry": {"type": "Point", "coordinates": [78.76346717259473, -49.09470119120795]}}, {"type": "Feature", "properties": {"norad_id": 66631, "name": "STARLINK-35965", "group": "last-30-days", "lat": -49.83010926933628, "lon": 81.4777800833743, "alt_km": 391.7227405333042, "timestamp": "2025-12-10T07:43:53.550117+00:00", "meta": {"OBJECT_NAME": "STARLINK-35965", "OBJECT_ID": "2025-271Q", "EPOCH": "2025-12-09T20:00:01.999008", "MEAN_MOTION": 15.62629064, "ECCENTRICITY": 7.53e-05, "INCLINATION": 53.1594, "RA_OF_ASC_NODE": 201.2175, "ARG_OF_PERICENTER": 99.7536, "MEAN_ANOMALY": 283.6396, "EPHEMERIS_TYPE": 0, "CLASSIFICATION_TYPE": "U", "NORAD_CAT_ID": 66631, "ELEMENT_SET_NO": 999, "REV_AT_EPOCH": 377, "BSTAR": -0.025358, "MEAN_MOTION_DOT": -0.02026827, "MEAN_MOTION_DDOT": 0}, "tle": {"line1": "1 66631U 25271Q   25343.83335647 -.02026827  00000+0 -25358-1 0  9997", "line2": "2 66631  53.1594 201.2175 0000753  99.7536 283.6396 15.62629064  3778"}}, "geometry": {"type": "Point", "coordinates": [81.4777800833743, -49.83010926933628]}}, {"type": "Feature", "properties": {"norad_id": 66632, "name": "STARLINK-35973", "group": "last-30-days", "lat": -50.499943254271564, "lon": 84.26900517443819, "alt_km": 391.80655378957, "timestamp": "2025-12-10T07:43:53.550127+00:00", "meta": {"OBJECT_NAME": "STARLINK-35973", "OBJECT_ID": "2025-271R", "EPOCH": "2025-12-09T20:00:01.999008", "MEAN_MOTION": 15.62635269, "ECCENTRICITY": 8.14e-05, "INCLINATION": 53.1596, "RA_OF_ASC_NODE": 201.2134, "ARG_OF_PERICENTER": 89.2801, "MEAN_ANOMALY": 296.0245, "EPHEMERIS_TYPE": 0, "CLASSIFICATION_TYPE": "U", "NORAD_CAT_ID": 66632, "ELEMENT_SET_NO": 999, "REV_AT_EPOCH": 371, "BSTAR": -0.025414, "MEAN_MOTION_DOT": -0.02031228, "MEAN_MOTION_DDOT": 0}, "tle": {"line1": "1 66632U 25271R   25343.83335647 -.02031228  00000+0 -25414-1 0  9992", "line2": "2 66632  53.1596 201.2134 0000814  89.2801 296.0245 15.62635269  3712"}}, "geometry": {"type": "Point", "coordinates": [84.26900517443819, -50.499943254271564]}}, {"type": "Feature", "properties": {"norad_id": 66633, "name": "STARLINK-35948", "group": "last-30-days", "lat": -51.1012695921538, "lon": 87.13952444484268, "alt_km": 391.81252271891935, "timestamp": "2025-12-10T07:43:53.550136+00:00", "meta": {"OBJECT_NAME": "STARLINK-35948", "OBJECT_ID": "2025-271S", "EPOCH": "2025-12-09T20:00:01.999008", "MEAN_MOTION": 15.62627642, "ECCENTRICITY": 8.19e-05, "INCLINATION": 53.1593, "RA_OF_ASC_NODE": 201.2083, "ARG_OF_PERICENTER": 96.117, "MEAN_ANOMALY": 291.1087, "EPHEMERIS_TYPE": 0, "CLASSIFICATION_TYPE": "U", "NORAD_CAT_ID": 66633, "ELEMENT_SET_NO": 999, "REV_AT_EPOCH": 377, "BSTAR": -0.025302, "MEAN_MOTION_DOT": -0.02022845, "MEAN_MOTION_DDOT": 0}, "tle": {"line1": "1 66633U 25271S   25343.83335647 -.02022845  00000+0 -25302-1 0  9994", "line2": "2 66633  53.1593 201.2083 0000819  96.1170 291.1087 15.62627642  3776"}}, "geometry": {"type": "Point", "coordinates": [87.13952444484268, -51.1012695921538]}}, {"type": "Feature", "properties": {"norad_id": 66634, "name": "STARLINK-35967", "group": "last-30-days", "lat": -51.63047536868669, "lon": 90.08027783998428, "alt_km": 391.8714309081897, "timestamp": "2025-12-10T07:43:53.550147+00:00", "meta": {"OBJECT_NAME": "STARLINK-35967", "OBJECT_ID": "2025-271T", "EPOCH": "2025-12-09T20:00:01.999008", "MEAN_MOTION": 15.62627634, "ECCENTRICITY": 8.68e-05, "INCLINATION": 53.1595, "RA_OF_ASC_NODE": 201.2041, "ARG_OF_PERICENTER": 96.9974, "MEAN_ANOMALY": 292.1483, "EPHEMERIS_TYPE": 0, "CLASSIFICATION_TYPE": "U", "NORAD_CAT_ID": 66634, "ELEMENT_SET_NO": 999, "REV_AT_EPOCH": 370, "BSTAR": -0.025345, "MEAN_MOTION_DOT": -0.02025905, "MEAN_MOTION_DDOT": 0}, "tle": {"line1": "1 66634U 25271T   25343.83335647 -.02025905  00000+0 -25345-1 0  9992", "line2": "2 66634  53.1595 201.2041 0000868  96.9974 292.1483 15.62627634  3702"}}, "geometry": {"type": "Point", "coordinates": [90.08027783998428, -51.63047536868669]}}, {"type": "Feature", "properties": {"norad_id": 66635, "name": "STARLINK-35955", "group": "last-30-days", "lat": -52.08419542239178, "lon": 93.08534612491749, "alt_km": 391.8905929488383, "timestamp": "2025-12-10T07:43:53.550159+00:00", "meta": {"OBJECT_NAME": "STARLINK-35955", "OBJECT_ID": "2025-271U", "EPOCH": "2025-12-09T20:00:01.999008", "MEAN_MOTION": 15.62629946, "ECCENTRICITY": 8.65e-05, "INCLINATION": 53.1596, "RA_OF_ASC_NODE": 201.2002, "ARG_OF_PERICENTER": 95.3008, "MEAN_ANOMALY": 295.7616, "EPHEMERIS_TYPE": 0, "CLASSIFICATION_TYPE": "U", "NORAD_CAT_ID": 66635, "ELEMENT_SET_NO": 999, "REV_AT_EPOCH": 377, "BSTAR": -0.025389, "MEAN_MOTION_DOT": -0.02029183, "MEAN_MOTION_DDOT": 0}, "tle": {"line1": "1 66635U 25271U   25343.83335647 -.02029183  00000+0 -25389-1 0  9993", "line2": "2 66635  53.1596 201.2002 0000865  95.3008 295.7616 15.62629946  3771"}}, "geometry": {"type": "Point", "coordinates": [93.08534612491749, -52.08419542239178]}}, {"type": "Feature", "properties": {"norad_id": 66636, "name": "STARLINK-35968", "group": "last-30-days", "lat": -52.45990314573003, "lon": 96.14653809920773, "alt_km": 391.8695150224039, "timestamp": "2025-12-10T07:43:53.550169+00:00", "meta": {"OBJECT_NAME": "STARLINK-35968", "OBJECT_ID": "2025-271V", "EPOCH": "2025-12-09T20:00:01.999008", "MEAN_MOTION": 15.62629908, "ECCENTRICITY": 8.29e-05, "INCLINATION": 53.1598, "RA_OF_ASC_NODE": 201.1962, "ARG_OF_PERICENTER": 101.552, "MEAN_ANOMALY": 291.4258, "EPHEMERIS_TYPE": 0, "CLASSIFICATION_TYPE": "U", "NORAD_CAT_ID": 66636, "ELEMENT_SET_NO": 999, "REV_AT_EPOCH": 377, "BSTAR": -0.025387, "MEAN_MOTION_DOT": -0.02029006, "MEAN_MOTION_DDOT": 0}, "tle": {"line1": "1 66636U 25271V   25343.83335647 -.02029006  00000+0 -25387-1 0  9996", "line2": "2 66636  53.1598 201.1962 0000829 101.5520 291.4258 15.62629908  3770"}}, "geometry": {"type": "Point", "coordinates": [96.14653809920773, -52.45990314573003]}}, {"type": "Feature", "properties": {"norad_id": 66637, "name": "STARLINK-35953", "group": "last-30-days", "lat": -52.7546172516861, "lon": 99.25251240195823, "alt_km": 391.8700815502343, "timestamp": "2025-12-10T07:43:53.550180+00:00", "meta": {"OBJECT_NAME": "STARLINK-35953", "OBJECT_ID": "2025-271W", "EPOCH": "2025-12-09T20:00:01.999008", "MEAN_MOTION": 15.62633123, "ECCENTRICITY": 8.02e-05, "INCLINATION": 53.1597, "RA_OF_ASC_NODE": 201.1924, "ARG_OF_PERICENTER": 89.9846, "MEAN_ANOMALY": 304.9123, "EPHEMERIS_TYPE": 0, "CLASSIFICATION_TYPE": "U", "NORAD_CAT_ID": 66637, "ELEMENT_SET_NO": 999, "REV_AT_EPOCH": 377, "BSTAR": -0.025475, "MEAN_MOTION_DOT": -0.02035332, "MEAN_MOTION_DDOT": 0}, "tle": {"line1": "1 66637U 25271W   25343.83335647 -.02035332  00000+0 -25475-1 0  9994", "line2": "2 66637  53.1597 201.1924 0000802  89.9846 304.9123 15.62633123  3774"}}, "geometry": {"type": "Point", "coordinates": [99.25251240195823, -52.7546172516861]}}, {"type": "Feature", "properties": {"norad_id": 66638, "name": "STARLINK-35972", "group": "last-30-days", "lat": -52.967227259632466, "lon": 102.39914933349309, "alt_km": 391.8959184947262, "timestamp": "2025-12-10T07:43:53.550192+00:00", "meta": {"OBJECT_NAME": "STARLINK-35972", "OBJECT_ID": "2025-271X", "EPOCH": "2025-12-09T20:00:01.999008", "MEAN_MOTION": 15.62635215, "ECCENTRICITY": 8.26e-05, "INCLINATION": 53.1596, "RA_OF_ASC_NODE": 201.1887, "ARG_OF_PERICENTER": 96.0104, "MEAN_ANOMALY": 300.8004, "EPHEMERIS_TYPE": 0, "CLASSIFICATION_TYPE": "U", "NORAD_CAT_ID": 66638, "ELEMENT_SET_NO": 999, "REV_AT_EPOCH": 377, "BSTAR": -0.025489, "MEAN_MOTION_DOT": -0.02036467, "MEAN_MOTION_DDOT": 0}, "tle": {"line1": "1 66638U 25271X   25343.83335647 -.02036467  00000+0 -25489-1 0  9990", "line2": "2 66638  53.1596 201.1887 0000826  96.0104 300.8004 15.62635215  3771"}}, "geometry": {"type": "Point", "coordinates": [102.39914933349309, -52.967227259632466]}}]}